{
  "type": "FeatureCollection",
  "features": [
    {
      "type": "Feature",
      "properties": {
        "norad_id": 66569,
        "name": "STARLINK-35835",
        "group": "last-30-days",
        "lat": -27.237141219839142,
        "lon": -19.7836057008175,
        "alt_km": 416.8396852155138,
        "timestamp": "2025-12-11T18:59:44.810542+00:00",
        "meta_object_name": "STARLINK-35835",
        "meta_object_id": "2025-268N",
        "meta_epoch": "2025-12-11T06:00:02.999808",
        "meta_mean_motion": 15.50578026,
        "meta_eccentricity": 0.00016099,
        "meta_inclination": 43.0001,
        "meta_ra_of_asc_node": 129.8527,
        "meta_arg_of_pericenter": 260.8333,
        "meta_mean_anomaly": 175.2399,
        "meta_ephemeris_type": 0,
        "meta_classification_type": "U",
        "meta_norad_cat_id": 66569,
        "meta_element_set_no": 999,
        "meta_rev_at_epoch": 442,
        "meta_bstar": -0.00051680861,
        "meta_mean_motion_dot": -0.00030541,
        "meta_mean_motion_ddot": 0,
        "tle_line1": "1 66569U 25268N   25345.25003472 -.00030541  00000+0 -51681-3 0  9995",
        "tle_line2": "2 66569  43.0001 129.8527 0001609 260.8333 175.2399 15.50578026  4422"
      },
      "geometry": {
        "type": "Point",
        "coordinates": [
          -19.7836057008175,
          -27.237141219839142
        ]
      }
    },
    {
      "type": "Feature",
      "properties": {
        "norad_id": 66570,
        "name": "STARLINK-35834",
        "group": "last-30-days",
        "lat": -28.315888655178284,
        "lon": -17.99622350551146,
        "alt_km": 416.87104084753264,
        "timestamp": "2025-12-11T18:59:44.810557+00:00",
        "meta_object_name": "STARLINK-35834",
        "meta_object_id": "2025-268P",
        "meta_epoch": "2025-12-11T06:00:02.999808",
        "meta_mean_motion": 15.50568723,
        "meta_eccentricity": 0.00017369,
        "meta_inclination": 43.0002,
        "meta_ra_of_asc_node": 129.8472,
        "meta_arg_of_pericenter": 265.301,
        "meta_mean_anomaly": 172.6974,
        "meta_ephemeris_type": 0,
        "meta_classification_type": "U",
        "meta_norad_cat_id": 66570,
        "meta_element_set_no": 999,
        "meta_rev_at_epoch": 442,
        "meta_bstar": -0.00027723489,
        "meta_mean_motion_dot": -0.00016566,
        "meta_mean_motion_ddot": 0,
        "tle_line1": "1 66570U 25268P   25345.25003472 -.00016566  00000+0 -27723-3 0  9998",
        "tle_line2": "2 66570  43.0002 129.8472 0001736 265.3010 172.6974 15.50568723  4420"
      },
      "geometry": {
        "type": "Point",
        "coordinates": [
          -17.99622350551146,
          -28.315888655178284
        ]
      }
    },
    {
      "type": "Feature",
      "properties": {
        "norad_id": 66571,
        "name": "STARLINK-35836",
        "group": "last-30-days",
        "lat": -29.368063727722664,
        "lon": -16.17648755013133,
        "alt_km": 417.0807088559095,
        "timestamp": "2025-12-11T18:59:44.810569+00:00",
        "meta_object_name": "STARLINK-35836",
        "meta_object_id": "2025-268Q",
        "meta_epoch": "2025-12-11T06:00:02.999808",
        "meta_mean_motion": 15.50605703,
        "meta_eccentricity": 0.00015703,
        "meta_inclination": 43.0003,
        "meta_ra_of_asc_node": 129.8425,
        "meta_arg_of_pericenter": 266.7024,
        "meta_mean_anomaly": 173.1982,
        "meta_ephemeris_type": 0,
        "meta_classification_type": "U",
        "meta_norad_cat_id": 66571,
        "meta_element_set_no": 999,
        "meta_rev_at_epoch": 442,
        "meta_bstar": -0.0012526261,
        "meta_mean_motion_dot": -0.00073214,
        "meta_mean_motion_ddot": 0,
        "tle_line1": "1 66571U 25268Q   25345.25003472 -.00073214  00000+0 -12526-2 0  9996",
        "tle_line2": "2 66571  43.0003 129.8425 0001570 266.7024 173.1982 15.50605703  4421"
      },
      "geometry": {
        "type": "Point",
        "coordinates": [
          -16.17648755013133,
          -29.368063727722664
        ]
      }
    },
    {
      "type": "Feature",
      "properties": {
        "norad_id": 66572,
        "name": "STARLINK-35870",
        "group": "last-30-days",
        "lat": -30.395028858225185,
        "lon": -14.317534047014119,
        "alt_km": 417.12874109115546,
        "timestamp": "2025-12-11T18:59:44.810582+00:00",
        "meta_object_name": "STARLINK-35870",
        "meta_object_id": "2025-268R",
        "meta_epoch": "2025-12-11T06:00:02.999808",
        "meta_mean_motion": 15.50596907,
        "meta_eccentricity": 0.00014921,
        "meta_inclination": 43.0002,
        "meta_ra_of_asc_node": 129.8388,
        "meta_arg_of_pericenter": 265.8542,
        "meta_mean_anomaly": 175.9616,
        "meta_ephemeris_type": 0,
        "meta_classification_type": "U",
        "meta_norad_cat_id": 66572,
        "meta_element_set_no": 999,
        "meta_rev_at_epoch": 442,
        "meta_bstar": -0.00098367412,
        "meta_mean_motion_dot": -0.00057662,
        "meta_mean_motion_ddot": 0,
        "tle_line1": "1 66572U 25268R   25345.25003472 -.00057662  00000+0 -98367-3 0  9994",
        "tle_line2": "2 66572  43.0002 129.8388 0001492 265.8542 175.9616 15.50596907  4426"
      },
      "geometry": {
        "type": "Point",
        "coordinates": [
          -14.317534047014119,
          -30.395028858225185
        ]
      }
    },
    {
      "type": "Feature",
      "properties": {
        "norad_id": 66573,
        "name": "STARLINK-35650",
        "group": "last-30-days",
        "lat": -31.391393131299214,
        "lon": -12.429005969978776,
        "alt_km": 416.97928987279556,
        "timestamp": "2025-12-11T18:59:44.810592+00:00",
        "meta_object_name": "STARLINK-35650",
        "meta_object_id": "2025-268S",
        "meta_epoch": "2025-12-11T06:00:02.999808",
        "meta_mean_motion": 15.50604575,
        "meta_eccentricity": 0.00022005,
        "meta_inclination": 43.0003,
        "meta_ra_of_asc_node": 129.833,
        "meta_arg_of_pericenter": 274.6315,
        "meta_mean_anomaly": 169.1005,
        "meta_ephemeris_type": 0,
        "meta_classification_type": "U",
        "meta_norad_cat_id": 66573,
        "meta_element_set_no": 999,
        "meta_rev_at_epoch": 442,
        "meta_bstar": -0.001223082,
        "meta_mean_motion_dot": -0.00071513,
        "meta_mean_motion_ddot": 0,
        "tle_line1": "1 66573U 25268S   25345.25003472 -.00071513  00000+0 -12231-2 0  9991",
        "tle_line2": "2 66573  43.0003 129.8330 0002200 274.6315 169.1005 15.50604575  4427"
      },
      "geometry": {
        "type": "Point",
        "coordinates": [
          -12.429005969978776,
          -31.391393131299214
        ]
      }
    },
    {
      "type": "Feature",
      "properties": {
        "norad_id": 66574,
        "name": "STARLINK-35812",
        "group": "last-30-days",
        "lat": -32.366515089841045,
        "lon": -10.484578778040632,
        "alt_km": 417.02346516682155,
        "timestamp": "2025-12-11T18:59:44.810604+00:00",
        "meta_object_name": "STARLINK-35812",
        "meta_object_id": "2025-268T",
        "meta_epoch": "2025-12-11T06:00:02.999808",
        "meta_mean_motion": 15.50579015,
        "meta_eccentricity": 0.00018046,
        "meta_inclination": 43.0003,
        "meta_ra_of_asc_node": 129.8281,
        "meta_arg_of_pericenter": 266.5143,
        "meta_mean_anomaly": 179.1437,
        "meta_ephemeris_type": 0,
        "meta_classification_type": "U",
        "meta_norad_cat_id": 66574,
        "meta_element_set_no": 999,
        "meta_rev_at_epoch": 442,
        "meta_bstar": -0.00055805037,
        "meta_mean_motion_dot": -0.00032943,
        "meta_mean_motion_ddot": 0,
        "tle_line1": "1 66574U 25268T   25345.25003472 -.00032943  00000+0 -55805-3 0  9991",
        "tle_line2": "2 66574  43.0003 129.8281 0001804 266.5143 179.1437 15.50579015  4421"
      },
      "geometry": {
        "type": "Point",
        "coordinates": [
          -10.484578778040632,
          -32.366515089841045
        ]
      }
    },
    {
      "type": "Feature",
      "properties": {
        "norad_id": 66575,
        "name": "STARLINK-35810",
        "group": "last-30-days",
        "lat": -33.30929971048046,
        "lon": -8.501858813636135,
        "alt_km": 417.22219556619893,
        "timestamp": "2025-12-11T18:59:44.810614+00:00",
        "meta_object_name": "STARLINK-35810",
        "meta_object_id": "2025-268U",
        "meta_epoch": "2025-12-11T06:00:02.999808",
        "meta_mean_motion": 15.50600934,
        "meta_eccentricity": 0.00017288,
        "meta_inclination": 43.0003,
        "meta_ra_of_asc_node": 129.8234,
        "meta_arg_of_pericenter": 273.7442,
        "meta_mean_anomaly": 173.8248,
        "meta_ephemeris_type": 0,
        "meta_classification_type": "U",
        "meta_norad_cat_id": 66575,
        "meta_element_set_no": 999,
        "meta_rev_at_epoch": 442,
        "meta_bstar": -0.0010909309,
        "meta_mean_motion_dot": -0.00063873,
        "meta_mean_motion_ddot": 0,
        "tle_line1": "1 66575U 25268U   25345.25003472 -.00063873  00000+0 -10909-2 0  9993",
        "tle_line2": "2 66575  43.0003 129.8234 0001728 273.7442 173.8248 15.50600934  4423"
      },
      "geometry": {
        "type": "Point",
        "coordinates": [
          -8.501858813636135,
          -33.30929971048046
        ]
      }
    }
  ]
}